0 COSMOS 1253
1 12323U 81022D   13281.84767587 -.00000001  00000-0  10081-3 0  4261
2 12323 074.0274 132.5414 0017412 123.6710 004.7542 12.45776454482429
0 COSMOS 1253
1 12323U 81022D   13284.02147723  .00000030  00000-0  31688-3 0  4276
2 12323 074.0271 129.6751 0017392 120.3080 033.9316 12.45776362482698
0 COSMOS 1253
1 12323U 81022D   13286.02878894  .00000019  00000-0  24297-3 0  4284
2 12323 074.0267 127.0283 0017371 117.1923 036.4363 12.45776621482948
0 COSMOS 1253
1 12323U 81022D   13288.03957350 -.00000016  00000-0  22459-6 0  4292
2 12323 074.0266 124.3769 0017359 114.0773 054.5106 12.45776941483190
0 COSMOS 1253
1 12323U 81022D   13290.49943542 -.00000032  00000-0 -11492-3 0  4306
2 12323 074.0268 121.1332 0017347 110.2827 286.6184 12.45777186483509
0 COSMOS 1253
1 12323U 81022D   13292.51267837 -.00000031  00000-0 -10932-3 0  4315
2 12323 074.0271 118.4784 0017344 107.1700 315.7167 12.45777073483752
0 COSMOS 1253
1 12323U 81022D   13294.51943666 -.00000000  00000-0  10574-3 0  4326
2 12323 074.0272 115.8322 0017337 104.0906 315.7096 12.45776901484007
